[
    {
        "OBJECT_NAME": "GSLV R/B",
        "OBJECT_ID": "2022-138AN",
        "EPOCH": "2026-04-25T13:58:05.383200",
        "MEAN_MOTION": 14.9702466,
        "ECCENTRICITY": 0.0020612,
        "INCLINATION": 87.3816,
        "RA_OF_ASC_NODE": 150.6504,
        "ARG_OF_PERICENTER": 348.2771,
        "MEAN_ANOMALY": 11.7978,
        "EPHEMERIS_TYPE": 0,
        "CLASSIFICATION_TYPE": "U",
        "NORAD_CAT_ID": 54149,
        "ELEMENT_SET_NO": 999,
        "REV_AT_EPOCH": 19094,
        "BSTAR": 0.00017671,
        "MEAN_MOTION_DOT": 2.07e-05,
        "MEAN_MOTION_DDOT": 0
    },
    {
        "OBJECT_NAME": "XRISM",
        "OBJECT_ID": "2023-137A",
        "EPOCH": "2026-04-25T18:47:05.438112",
        "MEAN_MOTION": 15.11999597,
        "ECCENTRICITY": 0.0007528,
        "INCLINATION": 31.0029,
        "RA_OF_ASC_NODE": 338.938,
        "ARG_OF_PERICENTER": 155.2995,
        "MEAN_ANOMALY": 204.8005,
        "EPHEMERIS_TYPE": 0,
        "CLASSIFICATION_TYPE": "U",
        "NORAD_CAT_ID": 57800,
        "ELEMENT_SET_NO": 999,
        "REV_AT_EPOCH": 14492,
        "BSTAR": 0.00030111,
        "MEAN_MOTION_DOT": 5.399e-05,
        "MEAN_MOTION_DDOT": 0
    },
    {
        "OBJECT_NAME": "ACS3",
        "OBJECT_ID": "2024-077B",
        "EPOCH": "2026-04-25T20:07:23.763936",
        "MEAN_MOTION": 13.91876309,
        "ECCENTRICITY": 0.0061471,
        "INCLINATION": 97.1854,
        "RA_OF_ASC_NODE": 46.3558,
        "ARG_OF_PERICENTER": 346.0179,
        "MEAN_ANOMALY": 13.9282,
        "EPHEMERIS_TYPE": 0,
        "CLASSIFICATION_TYPE": "U",
        "NORAD_CAT_ID": 59588,
        "ELEMENT_SET_NO": 999,
        "REV_AT_EPOCH": 10075,
        "BSTAR": 0.02997,
        "MEAN_MOTION_DOT": 0.0003893,
        "MEAN_MOTION_DDOT": 0
    },
    {
        "OBJECT_NAME": "HTV-X1",
        "OBJECT_ID": "2025-241A",
        "EPOCH": "2026-04-22T23:48:46.558656",
        "MEAN_MOTION": 15.32728944,
        "ECCENTRICITY": 0.00078219,
        "INCLINATION": 51.6353,
        "RA_OF_ASC_NODE": 219.4042,
        "ARG_OF_PERICENTER": 344.1053,
        "MEAN_ANOMALY": 15.9682,
        "EPHEMERIS_TYPE": 0,
        "CLASSIFICATION_TYPE": "U",
        "NORAD_CAT_ID": 66174,
        "ELEMENT_SET_NO": 999,
        "REV_AT_EPOCH": 2773,
        "BSTAR": 0.00014900059,
        "MEAN_MOTION_DOT": 4.413e-05,
        "MEAN_MOTION_DDOT": 0
    },
    {
        "OBJECT_NAME": "SZ-21 MODULE",
        "OBJECT_ID": "2025-246C",
        "EPOCH": "2026-04-24T17:37:21.379008",
        "MEAN_MOTION": 15.7208763,
        "ECCENTRICITY": 0.0004099,
        "INCLINATION": 41.473,
        "RA_OF_ASC_NODE": 279.1403,
        "ARG_OF_PERICENTER": 320.8652,
        "MEAN_ANOMALY": 39.1894,
        "EPHEMERIS_TYPE": 0,
        "CLASSIFICATION_TYPE": "U",
        "NORAD_CAT_ID": 66515,
        "ELEMENT_SET_NO": 999,
        "REV_AT_EPOCH": 2531,
        "BSTAR": 0.00025921604,
        "MEAN_MOTION_DOT": 0.00034872,
        "MEAN_MOTION_DDOT": 0
    }
]